#aV2011 11 27  0  0   .00000000      96 DD+AD WGS84 FIT  NGA
## 1664       .00000000   900.00000000 55892  .0000000000000
+   31     1  2  3  4  5  6  7  8  9 10 11 12 13 14 15 16 17
+         18 19 20 21 22 23 25 26 27 28 29 30 31 32  0  0  0
+          0  0  0  0  0  0  0  0  0  0  0  0  0  0  0  0  0
+          0  0  0  0  0  0  0  0  0  0  0  0  0  0  0  0  0
+          0  0  0  0  0  0  0  0  0  0  0  0  0  0  0  0  0
++         0  0  0  0  0  0  0  0  0  0  0  0  0  0  0  0  0
++         0  0  0  0  0  0  0  0  0  0  0  0  0  0  0  0  0
++         0  0  0  0  0  0  0  0  0  0  0  0  0  0  0  0  0
++         0  0  0  0  0  0  0  0  0  0  0  0  0  0  0  0  0
++         0  0  0  0  0  0  0  0  0  0  0  0  0  0  0  0  0
%c cc cc ccc ccc cccc cccc cccc cccc ccccc ccccc ccccc ccccc
%c cc cc ccc ccc cccc cccc cccc cccc ccccc ccccc ccccc ccccc
%f  0.0000000  0.000000000  0.00000000000  0.000000000000000
%f  0.0000000  0.000000000  0.00000000000  0.000000000000000
%i    0    0    0    0      0      0      0      0         0
%i    0    0    0    0      0      0      0      0         0
/*      NGA, ST. LOUIS,MO.                                  
/*   EPHEMERIS COMPUTED FROM  3 DAYS OF DATA                
/* CCCCCCCCCCCCCCCCCCCCCCCCCCCCCCCCCCCCCCCCCCCCCCCCCCCCCCCCC
/* CCCCCCCCCCCCCCCCCCCCCCCCCCCCCCCCCCCCCCCCCCCCCCCCCCCCCCCCC
*  2011 11 27  6 30   .00000000                                                 
P  1 -20876.240364 -13638.608437  -9171.891507    115.177535                    
V  1  11846.248315   1186.595941 -28771.877132       .189867                    
P  2   -752.562460  16097.320733  21242.724006    367.552293                    
V  2 -25646.408083  -7851.640493   4561.691620       .017851                    
P  3   6397.077082 -22269.977991 -13174.206275    800.497131                    
V  3  12968.380735 -10177.353503  24632.087147       .051246                    
P  4 -15689.888116   9494.661198  19086.975021     16.079844                    
V  4 -22952.236261  -9287.650463 -13739.516902       .113367                    
P  5   2148.568583  26047.809662   4320.586330   -250.511172                    
V  5  -4155.246475  -4803.837768  31022.244947      -.048870                    
P  6  11637.356779 -21562.831074  -9785.320381      8.143494                    
V  6  11476.529088  -6509.805092  27875.867127       .049297                    
P  7 -25661.382740  -5689.205715  -4623.274977     39.788160                    
V  7  -4817.652320  -3927.892092  31199.226881       .022590                    
P  8 -22469.296976    327.111511 -14552.231617       .117861                    
V  8 -16355.443065  -8220.848671  24417.900848       .000378                    
P  9  17814.228799  14999.702042 -13292.678441    121.109312                    
V  9 -15661.833917  -3413.986067 -25942.357257       .025338                    
P 10 -11133.709739  14574.014794  18836.835120    -20.318533                    
V 10  -6111.093526 -23882.563284  15073.262534      -.011242                    
P 11 -16690.979974 -13936.022799 -15824.355571   -207.771772                    
V 11  19735.995848  -1782.643081 -19365.709664      -.036479                    
P 12  11707.273731  20930.919481  11609.757408     37.175061                    
V 12    810.685607  14728.478508 -27222.268368       .022894                    
P 13 -19950.918004    422.237768  17435.587888    239.324757                    
V 13  17248.837256 -14204.968435  19846.666096      -.019949                    
P 14  21453.957283 -15440.012288  -1459.312613    183.165718                    
V 14   -218.152082   3096.531206 -32213.300753       .017267                    
P 15   6169.917484  14891.987252 -21074.284163    -98.223510                    
V 15 -20303.621154  17594.432906   6677.604192       .010185                    
P 16   -734.598139 -25905.276785   5050.229060   -211.002169                    
V 16   3424.509486   5966.843887  31482.999873      -.019614                    
P 17 -21534.431203  14979.248831  -3064.121318    163.626198                    
V 17   1265.713201  -4911.907475 -31616.663009      -.019098                    
P 18  16134.980824   2951.468075 -20604.579455    169.077298                    
V 18   4302.394068  26659.667079   6710.845215       .018453                    
P 19  -2343.733781 -16357.354164 -20749.174126   -209.147421                    
V 19  21820.474312 -14829.384343   9601.141062      -.039748                    
P 20 -13477.846313 -19871.412753  11278.604878     56.879306                    
V 20   -403.332875 -14916.370589 -26336.985824       .007319                    
P 21  25464.433853   2778.505952  -7647.918302   -187.150825                    
V 21   8613.513300   6264.376358  28659.207391      -.024498                    
P 22  12149.789485 -13386.377902 -19248.593433    143.276855                    
V 22   6173.003868  24250.298396 -12959.628472      -.001490                    
P 23 -13738.832959  -7856.714466  21404.694540    255.849131                    
V 23  20279.548854 -17915.119357   6094.867582      -.032739                    
P 25  15428.606043  11175.803483  18495.575117     28.808707                    
V 25   3533.672134  23282.075133 -16961.694773       .010027                    
P 26  -6773.405176  19339.327852 -17275.616782   -240.727146                    
V 26 -17553.435709  11397.962301  20733.119718      -.136393                    
P 27  13116.183225  15472.374505 -16716.183850    329.875961                    
V 27 -21758.921502  -4956.966483 -20475.026044       .039841                    
P 28 -12710.406481   9437.106316 -20744.079444     87.887803                    
V 28  -5051.559682 -27145.398435  -9265.740335       .033943                    
P 29  19639.077771    165.670757  17926.300517    261.019773                    
V 29 -16598.456700  15488.676555  18141.359070       .032759                    
P 30   5610.068668 -20127.433272  16055.187523     38.835585                    
V 30   8148.652046  19529.591693  21135.590343      -.104939                    
P 31  11805.584460 -10999.764144  21343.561073    174.889488                    
V 31  24847.243949   9286.441331  -8831.380401       .050375                    
P 32  -6927.726852 -25303.020615   5748.570991   -368.193674                    
V 32   1741.128086  -7140.811396 -30189.098609      -.059384                    
EOF
